[{"OBJECT_NAME":"GEESAT-2 01","OBJECT_ID":"2024-023A","EPOCH":"2026-03-09T23:03:28.689408","MEAN_MOTION":14.8287513,"ECCENTRICITY":0.00052371,"INCLINATION":49.9934,"RA_OF_ASC_NODE":93.5493,"ARG_OF_PERICENTER":4.3324,"MEAN_ANOMALY":355.7659,"EPHEMERIS_TYPE":0,"CLASSIFICATION_TYPE":"U","NORAD_CAT_ID":58905,"ELEMENT_SET_NO":999,"REV_AT_EPOCH":11418,"BSTAR":0.00033261995,"MEAN_MOTION_DOT":2.499e-5,"MEAN_MOTION_DDOT":0},{"OBJECT_NAME":"CZ-6A DEB","OBJECT_ID":"2022-151RW","EPOCH":"2026-03-09T20:58:55.139520","MEAN_MOTION":14.6867654,"ECCENTRICITY":0.00800732,"INCLINATION":99.0695,"RA_OF_ASC_NODE":192.1085,"ARG_OF_PERICENTER":276.8604,"MEAN_ANOMALY":82.3493,"EPHEMERIS_TYPE":0,"CLASSIFICATION_TYPE":"U","NORAD_CAT_ID":54933,"ELEMENT_SET_NO":999,"REV_AT_EPOCH":17531,"BSTAR":0.0026027814,"MEAN_MOTION_DOT":0.00015873,"MEAN_MOTION_DDOT":0}]
